[{"OBJECT_NAME":"STARLINK-35824","OBJECT_ID":"2025-254Y","EPOCH":"2026-03-09T17:36:01.579104","MEAN_MOTION":15.30201559,"ECCENTRICITY":0.00010412,"INCLINATION":53.1578,"RA_OF_ASC_NODE":229.988,"ARG_OF_PERICENTER":73.2932,"MEAN_ANOMALY":286.8183,"EPHEMERIS_TYPE":0,"CLASSIFICATION_TYPE":"U","NORAD_CAT_ID":66370,"ELEMENT_SET_NO":999,"REV_AT_EPOCH":1901,"BSTAR":0.0010895715,"MEAN_MOTION_DOT":0.00032052,"MEAN_MOTION_DDOT":0},{"OBJECT_NAME":"UNKNOWN","OBJECT_ID":"","EPOCH":"2026-02-15T06:28:00.562080","MEAN_MOTION":14.53453444,"ECCENTRICITY":0.0369408,"INCLINATION":66.0766,"RA_OF_ASC_NODE":348.0426,"ARG_OF_PERICENTER":102.1486,"MEAN_ANOMALY":262.125,"EPHEMERIS_TYPE":0,"CLASSIFICATION_TYPE":"U","NORAD_CAT_ID":81947,"ELEMENT_SET_NO":999,"REV_AT_EPOCH":64039,"BSTAR":0.00046514,"MEAN_MOTION_DOT":4.726e-5,"MEAN_MOTION_DDOT":0}]
